[{"OBJECT_NAME":"LEMUR-2-HUBBLE-4","OBJECT_ID":"2025-135AP","EPOCH":"2026-03-09T21:18:14.307840","MEAN_MOTION":14.92894994,"ECCENTRICITY":0.00012835,"INCLINATION":97.7573,"RA_OF_ASC_NODE":184.0816,"ARG_OF_PERICENTER":238.6225,"MEAN_ANOMALY":121.4869,"EPHEMERIS_TYPE":0,"CLASSIFICATION_TYPE":"U","NORAD_CAT_ID":64565,"ELEMENT_SET_NO":999,"REV_AT_EPOCH":3905,"BSTAR":0.00021400298,"MEAN_MOTION_DOT":2.162e-5,"MEAN_MOTION_DDOT":0},{"OBJECT_NAME":"COSMOS 1275 DEB","OBJECT_ID":"1981-053PM","EPOCH":"2026-02-19T02:57:31.850784","MEAN_MOTION":14.92096879,"ECCENTRICITY":0.00088143,"INCLINATION":82.7617,"RA_OF_ASC_NODE":355.4493,"ARG_OF_PERICENTER":71.846,"MEAN_ANOMALY":288.372,"EPHEMERIS_TYPE":0,"CLASSIFICATION_TYPE":"U","NORAD_CAT_ID":42101,"ELEMENT_SET_NO":999,"REV_AT_EPOCH":59624,"BSTAR":0.0036692581,"MEAN_MOTION_DOT":0.00037484,"MEAN_MOTION_DDOT":0}]
